[{"OBJECT_NAME":"STARLINK-3556","OBJECT_ID":"2022-022AB","EPOCH":"2026-03-09T04:36:39.892896","MEAN_MOTION":15.08839706,"ECCENTRICITY":0.0001378,"INCLINATION":53.2195,"RA_OF_ASC_NODE":1.3541,"ARG_OF_PERICENTER":92.7699,"MEAN_ANOMALY":267.3451,"EPHEMERIS_TYPE":0,"CLASSIFICATION_TYPE":"U","NORAD_CAT_ID":51877,"ELEMENT_SET_NO":999,"REV_AT_EPOCH":22317,"BSTAR":1.2108162e-5,"MEAN_MOTION_DOT":-9.5e-7,"MEAN_MOTION_DDOT":0},{"OBJECT_NAME":"DELTA 1 DEB","OBJECT_ID":"1978-026BU","EPOCH":"2026-03-09T11:22:20.910432","MEAN_MOTION":14.96481719,"ECCENTRICITY":0.00669454,"INCLINATION":98.7967,"RA_OF_ASC_NODE":254.5698,"ARG_OF_PERICENTER":166.8222,"MEAN_ANOMALY":193.4765,"EPHEMERIS_TYPE":0,"CLASSIFICATION_TYPE":"U","NORAD_CAT_ID":12227,"ELEMENT_SET_NO":999,"REV_AT_EPOCH":38498,"BSTAR":0.0006297912,"MEAN_MOTION_DOT":7.412e-5,"MEAN_MOTION_DDOT":0}]
